start=new Date('2022-10-03T00:00:00.000Z').valueOf();
sats=[{"GP_ID":"214049034","REV_AT_EPOCH":"7653","PERIAPSIS":"545.790","CENTER_NAME":"EARTH","MEAN_ANOMALY":"309.6063","TLE_LINE1":"1 48576U 21041Z   22275.56412661  .00016461  00000-0  11211-2 0  9993","ARG_OF_PERICENTER":"50.5104","FILE":"3589751","EPOCH":"2022-10-02T13:32:20.539104","ELEMENT_SET_NO":"999","EPHEMERIS_TYPE":"0","BSTAR":"0.00112110000000","ECCENTRICITY":"0.00020120","MEAN_MOTION_DOT":"0.00016461","CLASSIFICATION_TYPE":"U","MEAN_MOTION":"15.06409764","INCLINATION":"53.0553","SITE":"AFETR","REF_FRAME":"TEME","OBJECT_ID":"2021-041Z","TLE_LINE2":"2 48576  53.0553 336.6141 0002012  50.5104 309.6063 15.06409764 76537","PERIOD":"95.592","SEMIMAJOR_AXIS":"6925.319","MEAN_ELEMENT_THEORY":"SGP4","MEAN_MOTION_DDOT":"0.0000000000000","DECAY_DATE":null,"LAUNCH_DATE":"2021-05-15","TIME_SYSTEM":"UTC","OBJECT_TYPE":"PAYLOAD","NORAD_CAT_ID":"48576","RCS_SIZE":"LARGE","APOAPSIS":"548.577","OBJECT_NAME":"STARLINK-2228","RA_OF_ASC_NODE":"336.6141","COUNTRY_CODE":"US"},{"NORAD_CAT_ID":"48577","OBJECT_TYPE":"PAYLOAD","RCS_SIZE":"LARGE","APOAPSIS":"548.491","RA_OF_ASC_NODE":"0.9752","OBJECT_NAME":"STARLINK-2231","COUNTRY_CODE":"US","TLE_LINE2":"2 48577  53.0551   0.9752 0001812  57.3296 302.7867 15.06392612 76190","PERIOD":"95.593","SITE":"AFETR","REF_FRAME":"TEME","OBJECT_ID":"2021-041AA","LAUNCH_DATE":"2021-05-15","TIME_SYSTEM":"UTC","SEMIMAJOR_AXIS":"6925.371","MEAN_ELEMENT_THEORY":"SGP4","MEAN_MOTION_DDOT":"0.0000000000000","DECAY_DATE":null,"ELEMENT_SET_NO":"999","EPHEMERIS_TYPE":"0","EPOCH":"2022-10-02T16:53:19.978080","BSTAR":"0.00038893000000","ARG_OF_PERICENTER":"57.3296","TLE_LINE1":"1 48577U 21041AA  22275.70370345  .00005515  00000-0  38893-3 0  9996","FILE":"3589751","MEAN_MOTION_DOT":"0.00005515","CLASSIFICATION_TYPE":"U","MEAN_MOTION":"15.06392612","INCLINATION":"53.0551","ECCENTRICITY":"0.00018120","GP_ID":"214049271","CENTER_NAME":"EARTH","MEAN_ANOMALY":"302.7867","REV_AT_EPOCH":"7619","PERIAPSIS":"545.981"},{"MEAN_MOTION_DOT":"-0.00002024","CLASSIFICATION_TYPE":"U","MEAN_MOTION":"15.06390977","INCLINATION":"53.0560","ECCENTRICITY":"0.00017740","EPHEMERIS_TYPE":"0","ELEMENT_SET_NO":"999","EPOCH":"2022-10-02T17:35:53.568096","BSTAR":"-0.00011704000000","ARG_OF_PERICENTER":"52.3582","TLE_LINE1":"1 48578U 21041AB  22275.73325889 -.00002024  00000-0 -11704-3 0  9999","FILE":"3589751","CENTER_NAME":"EARTH","MEAN_ANOMALY":"307.7568","REV_AT_EPOCH":"7619","PERIAPSIS":"546.013","GP_ID":"214048038","RCS_SIZE":"LARGE","APOAPSIS":"548.470","OBJECT_NAME":"STARLINK-2232","RA_OF_ASC_NODE":"1.3678","COUNTRY_CODE":"US","NORAD_CAT_ID":"48578","OBJECT_TYPE":"PAYLOAD","LAUNCH_DATE":"2021-05-15","TIME_SYSTEM":"UTC","MEAN_ELEMENT_THEORY":"SGP4","SEMIMAJOR_AXIS":"6925.376","MEAN_MOTION_DDOT":"0.0000000000000","DECAY_DATE":null,"TLE_LINE2":"2 48578  53.0560   1.3678 0001774  52.3582 307.7568 15.06390977 76198","PERIOD":"95.593","SITE":"AFETR","REF_FRAME":"TEME","OBJECT_ID":"2021-041AB"},{"TIME_SYSTEM":"UTC","LAUNCH_DATE":"2021-05-15","DECAY_DATE":null,"MEAN_MOTION_DDOT":"0.0000000000000","SEMIMAJOR_AXIS":"6925.351","MEAN_ELEMENT_THEORY":"SGP4","PERIOD":"95.592","TLE_LINE2":"2 48579  53.0556   0.7418 0001711  61.3340 298.7820 15.06399236 76201","OBJECT_ID":"2021-041AC","REF_FRAME":"TEME","SITE":"AFETR","COUNTRY_CODE":"US","OBJECT_NAME":"STARLINK-2233","RA_OF_ASC_NODE":"0.7418","APOAPSIS":"548.401","RCS_SIZE":"LARGE","NORAD_CAT_ID":"48579","OBJECT_TYPE":"PAYLOAD","MEAN_ANOMALY":"298.7820","CENTER_NAME":"EARTH","PERIAPSIS":"546.031","REV_AT_EPOCH":"7620","GP_ID":"214048287","INCLINATION":"53.0556","MEAN_MOTION":"15.06399236","CLASSIFICATION_TYPE":"U","MEAN_MOTION_DOT":"-0.00000991","ECCENTRICITY":"0.00017110","BSTAR":"-0.00004761600000","ELEMENT_SET_NO":"999","EPHEMERIS_TYPE":"0","EPOCH":"2022-10-02T18:12:56.573568","FILE":"3589751","ARG_OF_PERICENTER":"61.3340","TLE_LINE1":"1 48579U 21041AC  22275.75898812 -.00000991  00000-0 -47616-4 0  9996"},{"SITE":"AFETR","REF_FRAME":"TEME","OBJECT_ID":"2021-041AD","TLE_LINE2":"2 48580  53.0534 335.3020 0001527  54.6368 305.4763 15.06402827 76578","PERIOD":"95.592","SEMIMAJOR_AXIS":"6925.340","MEAN_ELEMENT_THEORY":"SGP4","MEAN_MOTION_DDOT":"0.0000000000000","DECAY_DATE":null,"LAUNCH_DATE":"2021-05-15","TIME_SYSTEM":"UTC","OBJECT_TYPE":"PAYLOAD","NORAD_CAT_ID":"48580","RCS_SIZE":"LARGE","APOAPSIS":"548.262","RA_OF_ASC_NODE":"335.3020","OBJECT_NAME":"STARLINK-2234","COUNTRY_CODE":"US","GP_ID":"214048535","REV_AT_EPOCH":"7657","PERIAPSIS":"546.147","CENTER_NAME":"EARTH","MEAN_ANOMALY":"305.4763","ARG_OF_PERICENTER":"54.6368","TLE_LINE1":"1 48580U 21041AD  22275.85803545  .00001323  00000-0  10767-3 0  9992","FILE":"3589751","ELEMENT_SET_NO":"999","EPHEMERIS_TYPE":"0","EPOCH":"2022-10-02T20:35:34.262880","BSTAR":"0.00010767000000","ECCENTRICITY":"0.00015270","CLASSIFICATION_TYPE":"U","MEAN_MOTION_DOT":"0.00001323","INCLINATION":"53.0534","MEAN_MOTION":"15.06402827"},{"NORAD_CAT_ID":"48581","OBJECT_TYPE":"PAYLOAD","OBJECT_NAME":"STARLINK-2235","RA_OF_ASC_NODE":"327.2513","COUNTRY_CODE":"US","RCS_SIZE":"LARGE","APOAPSIS":"548.278","PERIOD":"95.593","TLE_LINE2":"2 48581  53.0559 327.2513 0001458  59.0585 301.0547 15.06382289 76656","OBJECT_ID":"2021-041AE","SITE":"AFETR","REF_FRAME":"TEME","TIME_SYSTEM":"UTC","LAUNCH_DATE":"2021-05-15","MEAN_MOTION_DDOT":"0.0000000000000","DECAY_DATE":null,"SEMIMAJOR_AXIS":"6925.403","MEAN_ELEMENT_THEORY":"SGP4","BSTAR":"0.00010473000000","EPHEMERIS_TYPE":"0","ELEMENT_SET_NO":"999","EPOCH":"2022-10-02T10:06:39.500928","FILE":"3589474","TLE_LINE1":"1 48581U 21041AE  22275.42129052  .00001278  00000-0  10473-3 0  9993","ARG_OF_PERICENTER":"59.0585","MEAN_MOTION":"15.06382289","INCLINATION":"53.0559","MEAN_MOTION_DOT":"0.00001278","CLASSIFICATION_TYPE":"U","ECCENTRICITY":"0.00014580","GP_ID":"214016731","CENTER_NAME":"EARTH","MEAN_ANOMALY":"301.0547","REV_AT_EPOCH":"7665","PERIAPSIS":"546.258"},{"FILE":"3589751","ARG_OF_PERICENTER":"65.7763","TLE_LINE1":"1 48582U 21041AF  22275.66824362  .00002511  00000-0  18742-3 0  9994","BSTAR":"0.00018742000000","EPHEMERIS_TYPE":"0","ELEMENT_SET_NO":"999","EPOCH":"2022-10-02T16:02:16.248768","ECCENTRICITY":"0.00016100","INCLINATION":"53.0546","MEAN_MOTION":"15.06399201","CLASSIFICATION_TYPE":"U","MEAN_MOTION_DOT":"0.00002511","GP_ID":"214047539","REV_AT_EPOCH":"7668","PERIAPSIS":"546.101","CENTER_NAME":"EARTH","MEAN_ANOMALY":"294.3394","OBJECT_TYPE":"PAYLOAD","NORAD_CAT_ID":"48582","RA_OF_ASC_NODE":"326.2969","OBJECT_NAME":"STARLINK-2236","COUNTRY_CODE":"US","RCS_SIZE":"LARGE","APOAPSIS":"548.331","OBJECT_ID":"2021-041AF","SITE":"AFETR","REF_FRAME":"TEME","PERIOD":"95.592","TLE_LINE2":"2 48582  53.0546 326.2969 0001610  65.7763 294.3394 15.06399201 76688","MEAN_MOTION_DDOT":"0.0000000000000","DECAY_DATE":null,"SEMIMAJOR_AXIS":"6925.351","MEAN_ELEMENT_THEORY":"SGP4","TIME_SYSTEM":"UTC","LAUNCH_DATE":"2021-05-15"},{"COUNTRY_CODE":"US","RA_OF_ASC_NODE":"11.7118","OBJECT_NAME":"STARLINK-2237","APOAPSIS":"548.354","RCS_SIZE":"LARGE","NORAD_CAT_ID":"48583","OBJECT_TYPE":"PAYLOAD","TIME_SYSTEM":"UTC","LAUNCH_DATE":"2021-05-15","DECAY_DATE":null,"MEAN_MOTION_DDOT":"0.0000000000000","MEAN_ELEMENT_THEORY":"SGP4","SEMIMAJOR_AXIS":"6925.399","PERIOD":"95.593","TLE_LINE2":"2 48583  53.0563  11.7118 0001575  64.9056 295.2097 15.06383648 76033","OBJECT_ID":"2021-041AG","REF_FRAME":"TEME","SITE":"AFETR","MEAN_MOTION":"15.06383648","INCLINATION":"53.0563","MEAN_MOTION_DOT":"-0.00002229","CLASSIFICATION_TYPE":"U","ECCENTRICITY":"0.00015750","BSTAR":"-0.00013083000000","EPHEMERIS_TYPE":"0","ELEMENT_SET_NO":"999","EPOCH":"2022-10-02T12:58:28.993440","FILE":"3589474","TLE_LINE1":"1 48583U 21041AG  22275.54061335 -.00002229  00000-0 -13083-3 0  9996","ARG_OF_PERICENTER":"64.9056","MEAN_ANOMALY":"295.2097","CENTER_NAME":"EARTH","PERIAPSIS":"546.173","REV_AT_EPOCH":"7603","GP_ID":"214015746"},{"GP_ID":"214049035","REV_AT_EPOCH":"7606","PERIAPSIS":"546.103","CENTER_NAME":"EARTH","MEAN_ANOMALY":"306.5737","FILE":"3589751","ARG_OF_PERICENTER":"53.5406","TLE_LINE1":"1 48584U 21041AH  22275.78019366  .00001883  00000-0  14531-3 0  9992","BSTAR":"0.00014531000000","ELEMENT_SET_NO":"999","EPOCH":"2022-10-02T18:43:28.732224","EPHEMERIS_TYPE":"0","ECCENTRICITY":"0.00016800","INCLINATION":"53.0542","MEAN_MOTION":"15.06382754","CLASSIFICATION_TYPE":"U","MEAN_MOTION_DOT":"0.00001883","OBJECT_ID":"2021-041AH","SITE":"AFETR","REF_FRAME":"TEME","PERIOD":"95.593","TLE_LINE2":"2 48584  53.0542  10.6516 0001680  53.5406 306.5737 15.06382754 76068","MEAN_MOTION_DDOT":"0.0000000000000","DECAY_DATE":null,"SEMIMAJOR_AXIS":"6925.401","MEAN_ELEMENT_THEORY":"SGP4","TIME_SYSTEM":"UTC","LAUNCH_DATE":"2021-05-15","OBJECT_TYPE":"PAYLOAD","NORAD_CAT_ID":"48584","RA_OF_ASC_NODE":"10.6516","OBJECT_NAME":"STARLINK-2238","COUNTRY_CODE":"US","RCS_SIZE":"LARGE","APOAPSIS":"548.430"},{"GP_ID":"214049272","PERIAPSIS":"546.067","REV_AT_EPOCH":"7605","MEAN_ANOMALY":"301.3962","CENTER_NAME":"EARTH","FILE":"3589751","TLE_LINE1":"1 48585U 21041AJ  22275.72490026  .00009888  00000-0  68170-3 0  9994","ARG_OF_PERICENTER":"58.7187","BSTAR":"0.00068170000000","EPHEMERIS_TYPE":"0","ELEMENT_SET_NO":"999","EPOCH":"2022-10-02T17:23:51.382464","ECCENTRICITY":"0.00016360","MEAN_MOTION":"15.06404453","INCLINATION":"53.0548","MEAN_MOTION_DOT":"0.00009888","CLASSIFICATION_TYPE":"U","OBJECT_ID":"2021-041AJ","REF_FRAME":"TEME","SITE":"AFETR","PERIOD":"95.592","TLE_LINE2":"2 48585  53.0548  10.8971 0001636  58.7187 301.3962 15.06404453 76059","DECAY_DATE":null,"MEAN_MOTION_DDOT":"0.0000000000000","SEMIMAJOR_AXIS":"6925.335","MEAN_ELEMENT_THEORY":"SGP4","TIME_SYSTEM":"UTC","LAUNCH_DATE":"2021-05-15","OBJECT_TYPE":"PAYLOAD","NORAD_CAT_ID":"48585","COUNTRY_CODE":"US","RA_OF_ASC_NODE":"10.8971","OBJECT_NAME":"STARLINK-2240","APOAPSIS":"548.333","RCS_SIZE":"LARGE"}];
